[
    {
        "Altitude(m)": 703889.6803371889,
        "Argument of Periapsis(deg)": 0.007973084830638947,
        "Eccentricity": 0.0,
        "Inclination(deg)": 45.0,
        "Latitude(deg)": 27.6188215720374,
        "Longitude(deg)": -89.17366677376268,
        "Mean Anomaly(deg)": -319.1994483467634,
        "RAAN(deg)": 339.9924736409793,
        "Satellite Name": "Constellation 1 1498",
        "Satellite Number": 1498,
        "Semi-Major Axis(m)": 7083131.272910544,
        "Time(s)": 133
    },
    {
        "Altitude(m)": 703895.055397818,
        "Argument of Periapsis(deg)": 0.008033032836884352,
        "Eccentricity": 0.0,
        "Inclination(deg)": 45.0,
        "Latitude(deg)": 27.655650823786676,
        "Longitude(deg)": -89.12322640614592,
        "Mean Anomaly(deg)": -319.13874720651353,
        "RAAN(deg)": 339.9924170518137,
        "Satellite Name": "Constellation 1 1498",
        "Satellite Number": 1498,
        "Semi-Major Axis(m)": 7083131.272910544,
        "Time(s)": 134
    },
    {
        "Altitude(m)": 703900.4373196905,
        "Argument of Periapsis(deg)": 0.008092980843129758,
        "Eccentricity": 0.0,
        "Inclination(deg)": 45.0,
        "Latitude(deg)": 27.692458411780752,
        "Longitude(deg)": -89.07274949907985,
        "Mean Anomaly(deg)": -319.0780460662636,
        "RAAN(deg)": 339.99236046264815,
        "Satellite Name": "Constellation 1 1498",
        "Satellite Number": 1498,
        "Semi-Major Axis(m)": 7083131.272910544,
        "Time(s)": 135
    },
    {
        "Altitude(m)": 703905.8260641757,
        "Argument of Periapsis(deg)": 0.008152928849375162,
        "Eccentricity": 0.0,
        "Inclination(deg)": 45.0,
        "Latitude(deg)": 27.729244288213593,
        "Longitude(deg)": -89.02223599243437,
        "Mean Anomaly(deg)": -319.01734492601366,
        "RAAN(deg)": 339.99230387348257,
        "Satellite Name": "Constellation 1 1498",
        "Satellite Number": 1498,
        "Semi-Major Axis(m)": 7083131.272910544,
        "Time(s)": 136
    },
    {
        "Altitude(m)": 703911.2215926272,
        "Argument of Periapsis(deg)": 0.008212876855620568,
        "Eccentricity": 0.0,
        "Inclination(deg)": 45.0,
        "Latitude(deg)": 27.766008405209785,
        "Longitude(deg)": -88.97168582610114,
        "Mean Anomaly(deg)": -318.9566437857638,
        "RAAN(deg)": 339.992247284317,
        "Satellite Name": "Constellation 1 1498",
        "Satellite Number": 1498,
        "Semi-Major Axis(m)": 7083131.272910544,
        "Time(s)": 137
    },
    {
        "Altitude(m)": 703916.623866386,
        "Argument of Periapsis(deg)": 0.008272824861865974,
        "Eccentricity": 0.0,
        "Inclination(deg)": 45.0,
        "Latitude(deg)": 27.802750714824636,
        "Longitude(deg)": -88.92109893999388,
        "Mean Anomaly(deg)": -318.89594264551397,
        "RAAN(deg)": 339.9921906951514,
        "Satellite Name": "Constellation 1 1498",
        "Satellite Number": 1498,
        "Semi-Major Axis(m)": 7083131.272910544,
        "Time(s)": 138
    },
    {
        "Altitude(m)": 703922.0328467735,
        "Argument of Periapsis(deg)": 0.00833277286811138,
        "Eccentricity": 0.0,
        "Inclination(deg)": 45.0,
        "Latitude(deg)": 27.839471169043794,
        "Longitude(deg)": -88.87047527404893,
        "Mean Anomaly(deg)": -318.835241505264,
        "RAAN(deg)": 339.9921341059859,
        "Satellite Name": "Constellation 1 1498",
        "Satellite Number": 1498,
        "Semi-Major Axis(m)": 7083131.272910544,
        "Time(s)": 139
    },
    {
        "Altitude(m)": 703927.4484950902,
        "Argument of Periapsis(deg)": 0.008392720874356788,
        "Eccentricity": 0.0,
        "Inclination(deg)": 45.0,
        "Latitude(deg)": 27.876169719783597,
        "Longitude(deg)": -88.8198147682256,
        "Mean Anomaly(deg)": -318.77454036501416,
        "RAAN(deg)": 339.9920775168203,
        "Satellite Name": "Constellation 1 1498",
        "Satellite Number": 1498,
        "Semi-Major Axis(m)": 7083131.272910544,
        "Time(s)": 140
    },
    {
        "Altitude(m)": 703932.8707726304,
        "Argument of Periapsis(deg)": 0.008452668880602192,
        "Eccentricity": 0.0,
        "Inclination(deg)": 45.0,
        "Latitude(deg)": 27.912846318890658,
        "Longitude(deg)": -88.76911753060368,
        "Mean Anomaly(deg)": -318.71383922476423,
        "RAAN(deg)": 339.9920209276547,
        "Satellite Name": "Constellation 1 1498",
        "Satellite Number": 1498,
        "Semi-Major Axis(m)": 7083131.272910544,
        "Time(s)": 141
    },
    {
        "Altitude(m)": 703938.2996406659,
        "Argument of Periapsis(deg)": 0.008512616886847598,
        "Eccentricity": 0.0,
        "Inclination(deg)": 45.0,
        "Latitude(deg)": 27.94950091814176,
        "Longitude(deg)": -88.71838316499658,
        "Mean Anomaly(deg)": -318.65313808451435,
        "RAAN(deg)": 339.99196433848914,
        "Satellite Name": "Constellation 1 1498",
        "Satellite Number": 1498,
        "Semi-Major Axis(m)": 7083131.272910544,
        "Time(s)": 142
    },
    {
        "Altitude(m)": 703943.7350604518,
        "Argument of Periapsis(deg)": 0.008572564893093004,
        "Eccentricity": 0.0,
        "Inclination(deg)": 45.0,
        "Latitude(deg)": 27.98613346924397,
        "Longitude(deg)": -88.6676117795328,
        "Mean Anomaly(deg)": -318.5924369442644,
        "RAAN(deg)": 339.99190774932356,
        "Satellite Name": "Constellation 1 1498",
        "Satellite Number": 1498,
        "Semi-Major Axis(m)": 7083131.272910544,
        "Time(s)": 143
    },
    {
        "Altitude(m)": 703949.1769932245,
        "Argument of Periapsis(deg)": 0.008632512899338408,
        "Eccentricity": 0.0,
        "Inclination(deg)": 45.0,
        "Latitude(deg)": 28.022743923834714,
        "Longitude(deg)": -88.6168033142688,
        "Mean Anomaly(deg)": -318.53173580401455,
        "RAAN(deg)": 339.99185116015803,
        "Satellite Name": "Constellation 1 1498",
        "Satellite Number": 1498,
        "Semi-Major Axis(m)": 7083131.272910544,
        "Time(s)": 144
    },
    {
        "Altitude(m)": 703954.6254002202,
        "Argument of Periapsis(deg)": 0.008692460905583814,
        "Eccentricity": 0.0,
        "Inclination(deg)": 45.0,
        "Latitude(deg)": 28.059332233481367,
        "Longitude(deg)": -88.56595770928676,
        "Mean Anomaly(deg)": -318.47103466376467,
        "RAAN(deg)": 339.99179457099245,
        "Satellite Name": "Constellation 1 1498",
        "Satellite Number": 1498,
        "Semi-Major Axis(m)": 7083131.272910544,
        "Time(s)": 145
    },
    {
        "Altitude(m)": 703960.0802426374,
        "Argument of Periapsis(deg)": 0.00875240891182922,
        "Eccentricity": 0.0,
        "Inclination(deg)": 45.0,
        "Latitude(deg)": 28.095898349681242,
        "Longitude(deg)": -88.51507490469498,
        "Mean Anomaly(deg)": -318.41033352351474,
        "RAAN(deg)": 339.9917379818269,
        "Satellite Name": "Constellation 1 1498",
        "Satellite Number": 1498,
        "Semi-Major Axis(m)": 7083131.272910544,
        "Time(s)": 146
    },
    {
        "Altitude(m)": 703965.5414816786,
        "Argument of Periapsis(deg)": 0.008812356918074627,
        "Eccentricity": 0.0,
        "Inclination(deg)": 45.0,
        "Latitude(deg)": 28.132442223861705,
        "Longitude(deg)": -88.46415484062832,
        "Mean Anomaly(deg)": -318.3496323832648,
        "RAAN(deg)": 339.9916813926613,
        "Satellite Name": "Constellation 1 1498",
        "Satellite Number": 1498,
        "Semi-Major Axis(m)": 7083131.272910544,
        "Time(s)": 147
    },
    {
        "Altitude(m)": 703971.0090785207,
        "Argument of Periapsis(deg)": 0.008872304924320031,
        "Eccentricity": 0.0,
        "Inclination(deg)": 45.0,
        "Latitude(deg)": 28.168963807380084,
        "Longitude(deg)": -88.41319762534528,
        "Mean Anomaly(deg)": -318.28893124301493,
        "RAAN(deg)": 339.9916248034957,
        "Satellite Name": "Constellation 1 1498",
        "Satellite Number": 1498,
        "Semi-Major Axis(m)": 7083131.272910544,
        "Time(s)": 148
    },
    {
        "Altitude(m)": 703976.4829943286,
        "Argument of Periapsis(deg)": 0.008932252930565437,
        "Eccentricity": 0.0,
        "Inclination(deg)": 45.0,
        "Latitude(deg)": 28.20546305152333,
        "Longitude(deg)": -88.36220286284161,
        "Mean Anomaly(deg)": -318.2282301027651,
        "RAAN(deg)": 339.9915682143302,
        "Satellite Name": "Constellation 1 1498",
        "Satellite Number": 1498,
        "Semi-Major Axis(m)": 7083131.272910544,
        "Time(s)": 149
    },
    {
        "Altitude(m)": 703981.9631902553,
        "Argument of Periapsis(deg)": 0.008992200936810843,
        "Eccentricity": 0.0,
        "Inclination(deg)": 45.0,
        "Latitude(deg)": 28.24193990750828,
        "Longitude(deg)": -88.31117066143156,
        "Mean Anomaly(deg)": -318.1675289625152,
        "RAAN(deg)": 339.9915116251646,
        "Satellite Name": "Constellation 1 1498",
        "Satellite Number": 1498,
        "Semi-Major Axis(m)": 7083131.272910544,
        "Time(s)": 150
    },
    {
        "Altitude(m)": 703987.4496274324,
        "Argument of Periapsis(deg)": 0.009052148943056249,
        "Eccentricity": 0.0,
        "Inclination(deg)": 45.0,
        "Latitude(deg)": 28.278394326481383,
        "Longitude(deg)": -88.2601009613613,
        "Mean Anomaly(deg)": -318.10682782226525,
        "RAAN(deg)": 339.991455035999,
        "Satellite Name": "Constellation 1 1498",
        "Satellite Number": 1498,
        "Semi-Major Axis(m)": 7083131.272910544,
        "Time(s)": 151
    }
]